[{"OBJECT_NAME":"HULIANWANG DIGUI-97","OBJECT_ID":"2025-258B","EPOCH":"2026-03-03T11:04:44.558112","MEAN_MOTION":13.29332122,"ECCENTRICITY":3.88e-5,"INCLINATION":50.002,"RA_OF_ASC_NODE":315.086,"ARG_OF_PERICENTER":91.9926,"MEAN_ANOMALY":268.0991,"EPHEMERIS_TYPE":0,"CLASSIFICATION_TYPE":"U","NORAD_CAT_ID":66413,"ELEMENT_SET_NO":999,"REV_AT_EPOCH":1566,"BSTAR":0.00016219,"MEAN_MOTION_DOT":-4.9e-7,"MEAN_MOTION_DDOT":0},{"OBJECT_NAME":"HULIANWANG DIGUI-98","OBJECT_ID":"2025-258C","EPOCH":"2026-03-03T10:52:40.741248","MEAN_MOTION":13.2933366,"ECCENTRICITY":4.28e-5,"INCLINATION":50.0057,"RA_OF_ASC_NODE":315.0838,"ARG_OF_PERICENTER":105.1848,"MEAN_ANOMALY":254.9071,"EPHEMERIS_TYPE":0,"CLASSIFICATION_TYPE":"U","NORAD_CAT_ID":66414,"ELEMENT_SET_NO":999,"REV_AT_EPOCH":1566,"BSTAR":0.00015684,"MEAN_MOTION_DOT":-5.1e-7,"MEAN_MOTION_DDOT":0},{"OBJECT_NAME":"HULIANWANG DIGUI-99","OBJECT_ID":"2025-258D","EPOCH":"2026-03-03T06:28:04.922688","MEAN_MOTION":13.2933126,"ECCENTRICITY":3.15e-5,"INCLINATION":50.0056,"RA_OF_ASC_NODE":315.4438,"ARG_OF_PERICENTER":83.2602,"MEAN_ANOMALY":276.8306,"EPHEMERIS_TYPE":0,"CLASSIFICATION_TYPE":"U","NORAD_CAT_ID":66415,"ELEMENT_SET_NO":999,"REV_AT_EPOCH":1563,"BSTAR":0.00016783,"MEAN_MOTION_DOT":-4.6e-7,"MEAN_MOTION_DDOT":0},{"OBJECT_NAME":"HULIANWANG DIGUI-100","OBJECT_ID":"2025-258E","EPOCH":"2026-03-03T10:40:39.511200","MEAN_MOTION":13.29334181,"ECCENTRICITY":2.92e-5,"INCLINATION":50.0059,"RA_OF_ASC_NODE":315.0428,"ARG_OF_PERICENTER":79.628,"MEAN_ANOMALY":280.4625,"EPHEMERIS_TYPE":0,"CLASSIFICATION_TYPE":"U","NORAD_CAT_ID":66416,"ELEMENT_SET_NO":999,"REV_AT_EPOCH":1567,"BSTAR":0.00015932,"MEAN_MOTION_DOT":-5.0e-7,"MEAN_MOTION_DDOT":0},{"OBJECT_NAME":"HULIANWANG DIGUI-101","OBJECT_ID":"2025-258F","EPOCH":"2026-03-03T10:28:38.750304","MEAN_MOTION":13.29332386,"ECCENTRICITY":3.26e-5,"INCLINATION":50.0009,"RA_OF_ASC_NODE":314.9415,"ARG_OF_PERICENTER":75.9202,"MEAN_ANOMALY":284.1706,"EPHEMERIS_TYPE":0,"CLASSIFICATION_TYPE":"U","NORAD_CAT_ID":66417,"ELEMENT_SET_NO":999,"REV_AT_EPOCH":1567,"BSTAR":0.00016101,"MEAN_MOTION_DOT":-4.9e-7,"MEAN_MOTION_DDOT":0},{"OBJECT_NAME":"HULIANWANG DIGUI-102","OBJECT_ID":"2025-258G","EPOCH":"2026-03-03T08:04:15.676320","MEAN_MOTION":13.29334377,"ECCENTRICITY":3.38e-5,"INCLINATION":50.0023,"RA_OF_ASC_NODE":315.0913,"ARG_OF_PERICENTER":98.4003,"MEAN_ANOMALY":261.6907,"EPHEMERIS_TYPE":0,"CLASSIFICATION_TYPE":"U","NORAD_CAT_ID":66418,"ELEMENT_SET_NO":999,"REV_AT_EPOCH":1565,"BSTAR":0.00015454,"MEAN_MOTION_DOT":-5.2e-7,"MEAN_MOTION_DDOT":0},{"OBJECT_NAME":"HULIANWANG DIGUI-103","OBJECT_ID":"2025-258H","EPOCH":"2026-03-03T11:28:46.536960","MEAN_MOTION":13.29333391,"ECCENTRICITY":2.7e-5,"INCLINATION":50.0016,"RA_OF_ASC_NODE":314.5007,"ARG_OF_PERICENTER":77.5702,"MEAN_ANOMALY":282.52,"EPHEMERIS_TYPE":0,"CLASSIFICATION_TYPE":"U","NORAD_CAT_ID":66419,"ELEMENT_SET_NO":999,"REV_AT_EPOCH":1567,"BSTAR":0.00015149,"MEAN_MOTION_DOT":-5.4e-7,"MEAN_MOTION_DDOT":0},{"OBJECT_NAME":"HULIANWANG DIGUI-104","OBJECT_ID":"2025-258J","EPOCH":"2026-03-03T11:16:45.986016","MEAN_MOTION":13.29332758,"ECCENTRICITY":3.61e-5,"INCLINATION":50.0034,"RA_OF_ASC_NODE":314.4797,"ARG_OF_PERICENTER":102.6768,"MEAN_ANOMALY":257.4144,"EPHEMERIS_TYPE":0,"CLASSIFICATION_TYPE":"U","NORAD_CAT_ID":66420,"ELEMENT_SET_NO":999,"REV_AT_EPOCH":1566,"BSTAR":0.00014819,"MEAN_MOTION_DOT":-5.5e-7,"MEAN_MOTION_DDOT":0},{"OBJECT_NAME":"HULIANWANG DIGUI-105","OBJECT_ID":"2025-285A","EPOCH":"2026-03-03T11:22:22.882944","MEAN_MOTION":13.29331624,"ECCENTRICITY":6.5e-6,"INCLINATION":50.0043,"RA_OF_ASC_NODE":165.3562,"ARG_OF_PERICENTER":293.8904,"MEAN_ANOMALY":66.1961,"EPHEMERIS_TYPE":0,"CLASSIFICATION_TYPE":"U","NORAD_CAT_ID":66915,"ELEMENT_SET_NO":999,"REV_AT_EPOCH":1199,"BSTAR":4.7282e-5,"MEAN_MOTION_DOT":-1.02e-6,"MEAN_MOTION_DDOT":0},{"OBJECT_NAME":"HULIANWANG DIGUI-106","OBJECT_ID":"2025-285B","EPOCH":"2026-03-03T09:22:18.501888","MEAN_MOTION":13.29299202,"ECCENTRICITY":0.0006344,"INCLINATION":50.0035,"RA_OF_ASC_NODE":165.5918,"ARG_OF_PERICENTER":25.738,"MEAN_ANOMALY":334.3807,"EPHEMERIS_TYPE":0,"CLASSIFICATION_TYPE":"U","NORAD_CAT_ID":66916,"ELEMENT_SET_NO":999,"REV_AT_EPOCH":1198,"BSTAR":-1.3759,"MEAN_MOTION_DOT":-0.00612238,"MEAN_MOTION_DDOT":0},{"OBJECT_NAME":"HULIANWANG DIGUI-107","OBJECT_ID":"2025-285C","EPOCH":"2026-03-03T10:58:19.822368","MEAN_MOTION":13.29331273,"ECCENTRICITY":2.4e-6,"INCLINATION":50.0021,"RA_OF_ASC_NODE":165.252,"ARG_OF_PERICENTER":330.3237,"MEAN_ANOMALY":29.7634,"EPHEMERIS_TYPE":0,"CLASSIFICATION_TYPE":"U","NORAD_CAT_ID":66917,"ELEMENT_SET_NO":999,"REV_AT_EPOCH":1199,"BSTAR":9.6081e-5,"MEAN_MOTION_DOT":-7.9e-7,"MEAN_MOTION_DDOT":0},{"OBJECT_NAME":"HULIANWANG DIGUI-108","OBJECT_ID":"2025-285D","EPOCH":"2026-03-03T10:46:17.435424","MEAN_MOTION":13.29331707,"ECCENTRICITY":2.0e-6,"INCLINATION":50.0041,"RA_OF_ASC_NODE":165.2251,"ARG_OF_PERICENTER":10.0572,"MEAN_ANOMALY":350.0301,"EPHEMERIS_TYPE":0,"CLASSIFICATION_TYPE":"U","NORAD_CAT_ID":66918,"ELEMENT_SET_NO":999,"REV_AT_EPOCH":1199,"BSTAR":4.4419e-5,"MEAN_MOTION_DOT":-1.03e-6,"MEAN_MOTION_DDOT":0},{"OBJECT_NAME":"HULIANWANG DIGUI-109","OBJECT_ID":"2025-285E","EPOCH":"2026-03-03T10:34:15.738816","MEAN_MOTION":13.29331411,"ECCENTRICITY":1.6e-6,"INCLINATION":50.0066,"RA_OF_ASC_NODE":165.2013,"ARG_OF_PERICENTER":27.2705,"MEAN_ANOMALY":332.8168,"EPHEMERIS_TYPE":0,"CLASSIFICATION_TYPE":"U","NORAD_CAT_ID":66919,"ELEMENT_SET_NO":999,"REV_AT_EPOCH":1200,"BSTAR":0.00010174,"MEAN_MOTION_DOT":-7.7e-7,"MEAN_MOTION_DDOT":0},{"OBJECT_NAME":"HULIANWANG DIGUI-110","OBJECT_ID":"2025-285F","EPOCH":"2026-03-03T12:10:29.886240","MEAN_MOTION":13.29331222,"ECCENTRICITY":2.7e-6,"INCLINATION":50.0098,"RA_OF_ASC_NODE":164.9136,"ARG_OF_PERICENTER":318.6915,"MEAN_ANOMALY":41.3956,"EPHEMERIS_TYPE":0,"CLASSIFICATION_TYPE":"U","NORAD_CAT_ID":66920,"ELEMENT_SET_NO":999,"REV_AT_EPOCH":1200,"BSTAR":0.00013694,"MEAN_MOTION_DOT":-6.1e-7,"MEAN_MOTION_DDOT":0},{"OBJECT_NAME":"HULIANWANG DIGUI-111","OBJECT_ID":"2025-285G","EPOCH":"2026-03-03T11:58:28.015968","MEAN_MOTION":13.29330997,"ECCENTRICITY":1.9e-6,"INCLINATION":50.0113,"RA_OF_ASC_NODE":164.8831,"ARG_OF_PERICENTER":12.9934,"MEAN_ANOMALY":347.0939,"EPHEMERIS_TYPE":0,"CLASSIFICATION_TYPE":"U","NORAD_CAT_ID":66921,"ELEMENT_SET_NO":999,"REV_AT_EPOCH":1200,"BSTAR":0.00010365,"MEAN_MOTION_DOT":-7.6e-7,"MEAN_MOTION_DDOT":0},{"OBJECT_NAME":"HULIANWANG DIGUI-112","OBJECT_ID":"2025-285H","EPOCH":"2026-03-03T11:46:26.440320","MEAN_MOTION":13.29331454,"ECCENTRICITY":3.4e-6,"INCLINATION":50.0077,"RA_OF_ASC_NODE":164.8126,"ARG_OF_PERICENTER":336.5122,"MEAN_ANOMALY":23.5749,"EPHEMERIS_TYPE":0,"CLASSIFICATION_TYPE":"U","NORAD_CAT_ID":66922,"ELEMENT_SET_NO":999,"REV_AT_EPOCH":1200,"BSTAR":0.00011422,"MEAN_MOTION_DOT":-7.1e-7,"MEAN_MOTION_DDOT":0}]
