HULIANWANG DIGUI-97     
1 66413U 25258B   26062.46162683 -.00000049  00000+0  16219-3 0  9999
2 66413  50.0020 315.0860 0000388  91.9926 268.0991 13.29332122 15668
HULIANWANG DIGUI-98     
1 66414U 25258C   26062.45324932 -.00000051  00000+0  15684-3 0  9994
2 66414  50.0057 315.0838 0000428 105.1848 254.9071 13.29333660 15661
HULIANWANG DIGUI-99     
1 66415U 25258D   26062.26950142 -.00000046  00000+0  16783-3 0  9997
2 66415  50.0056 315.4438 0000315  83.2602 276.8306 13.29331260 15635
HULIANWANG DIGUI-100    
1 66416U 25258E   26062.44490175 -.00000050  00000+0  15932-3 0  9993
2 66416  50.0059 315.0428 0000292  79.6280 280.4625 13.29334181 15673
HULIANWANG DIGUI-101    
1 66417U 25258F   26062.43655961 -.00000049  00000+0  16101-3 0  9996
2 66417  50.0009 314.9415 0000326  75.9202 284.1706 13.29332386 15670
HULIANWANG DIGUI-102    
1 66418U 25258G   26062.33629255 -.00000052  00000+0  15454-3 0  9997
2 66418  50.0023 315.0913 0000338  98.4003 261.6907 13.29334377 15657
HULIANWANG DIGUI-103    
1 66419U 25258H   26062.47831640 -.00000054  00000+0  15149-3 0  9999
2 66419  50.0016 314.5007 0000270  77.5702 282.5200 13.29333391 15672
HULIANWANG DIGUI-104    
1 66420U 25258J   26062.46997669 -.00000055  00000+0  14819-3 0  9998
2 66420  50.0034 314.4797 0000361 102.6768 257.4144 13.29332758 15665
HULIANWANG DIGUI-105    
1 66915U 25285A   26062.47387596 -.00000102  00000+0  47282-4 0  9994
2 66915  50.0043 165.3562 0000065 293.8904  66.1961 13.29331624 11998
HULIANWANG DIGUI-106    
1 66916U 25285B   26062.39049192 -.00612238  00000+0 -13759+1 0  9991
2 66916  50.0035 165.5918 0006344  25.7380 334.3807 13.29299202 11986
HULIANWANG DIGUI-107    
1 66917U 25285C   26062.45717387 -.00000079  00000+0  96081-4 0  9993
2 66917  50.0021 165.2520 0000024 330.3237  29.7634 13.29331273 11992
HULIANWANG DIGUI-108    
1 66918U 25285D   26062.44881291 -.00000103  00000+0  44419-4 0  9995
2 66918  50.0041 165.2251 0000020  10.0572 350.0301 13.29331707 11999
HULIANWANG DIGUI-109    
1 66919U 25285E   26062.44045994 -.00000077  00000+0  10174-3 0  9998
2 66919  50.0066 165.2013 0000016  27.2705 332.8168 13.29331411 12000
HULIANWANG DIGUI-110    
1 66920U 25285F   26062.50729035 -.00000061  00000+0  13694-3 0  9995
2 66920  50.0098 164.9136 0000027 318.6915  41.3956 13.29331222 12008
HULIANWANG DIGUI-111    
1 66921U 25285G   26062.49893537 -.00000076  00000+0  10365-3 0  9991
2 66921  50.0113 164.8831 0000019  12.9934 347.0939 13.29330997 12009
HULIANWANG DIGUI-112    
1 66922U 25285H   26062.49058380 -.00000071  00000+0  11422-3 0  9991
2 66922  50.0077 164.8126 0000034 336.5122  23.5749 13.29331454 12001
